NORAD_CAT_ID,OBJECT_NAME,OBJECT_TYPE,EPOCH,MEAN_MOTION,ECCENTRICITY,INCLINATION,RA_OF_ASC_NODE,ARG_OF_PERICENTER,MEAN_ANOMALY,BSTAR,MEAN_MOTION_DOT,MEAN_MOTION_DDOT,TLE_LINE0,TLE_LINE1,TLE_LINE2,SEMIMAJOR_AXIS,PERIOD,APOGEE,PERIGEE,DECAYED
54087.0,STARLINK-5184,PAYLOAD,2023-01-11 12:17:42,15.0884384,0.0001509,53.2147,110.9212,112.2523,247.863,-1.3426e-05,-5.02e-06,0.0,0 STARLINK-5184,1 54087U 22136AN  23011.51229465 -.00000502  00000-0 -13426-4 0  9998,2 54087  53.2147 110.9212 0001509 112.2523 247.8630 15.08843840 12896,6917.8690000000015,95.437,540.778,538.69,0.0
54087.0,STARLINK-5184,PAYLOAD,2023-01-11 23:25:24,15.08845787,0.0001077,53.2159,108.8374,91.5755,268.536,-3.7897e-05,-8.91e-06,0.0,0 STARLINK-5184,1 54087U 22136AN  23011.97597385 -.00000891  00000-0 -37897-4 0  9996,2 54087  53.2159 108.8374 0001077  91.5755 268.5360 15.08845787 13433,6917.863,95.437,540.4730000000002,538.9830000000002,0.0
54087.0,STARLINK-5184,PAYLOAD,2023-01-12 08:57:43,15.088301800000002,0.0001125,53.2166,107.0522,94.0013,266.1107,3.4467e-05,2.61e-06,0.0,0 STARLINK-5184,1 54087U 22136AN  23012.37342264  .00000261  00000-0  34467-4 0  9994,2 54087  53.2166 107.0522 0001125  94.0013 266.1107 15.08830180 13496,6917.91,95.438,540.554,538.997,0.0
54087.0,STARLINK-5184,PAYLOAD,2023-01-12 23:16:11,15.08844595,0.0001858,53.2149,104.3733,81.0801,279.0402,-4.5294e-05,-1.009e-05,0.0,0 STARLINK-5184,1 54087U 22136AN  23012.96957918 -.00001009  00000-0 -45294-4 0  9990,2 54087  53.2149 104.3733 0001858  81.0801 279.0402 15.08844595 13581,6917.866,95.437,541.0169999999998,538.446,0.0
54087.0,STARLINK-5184,PAYLOAD,2023-01-13 11:59:16,15.08844996,0.0001190999999999,53.2168,101.997,85.2704,274.8424,2.994e-05,1.89e-06,0.0,0 STARLINK-5184,1 54087U 22136AN  23013.49949613  .00000189  00000-0  29940-4 0  9998,2 54087  53.2168 101.9970 0001191  85.2704 274.8424 15.08844996 13195,6917.865,95.437,540.554,538.906,0.0
54087.0,STARLINK-5184,PAYLOAD,2023-01-14 05:28:31,15.0883247,0.0001176,53.2173,98.7257,84.0793,276.0333,1.1781e-05,-1e-06,0.0,0 STARLINK-5184,1 54087U 22136AN  23014.22814471 -.00000100  00000-0  11781-4 0  9991,2 54087  53.2173  98.7257 0001176  84.0793 276.0333 15.08832470 13771,6917.903,95.438,540.582,538.955,0.0
54087.0,STARLINK-5184,PAYLOAD,2023-01-14 11:50:03,15.08843156,0.0002254,53.2136,97.5344,84.8951,275.2298,5.6459e-05,6.1e-06,0.0,0 STARLINK-5184,1 54087U 22136AN  23014.49309930  .00000610  00000-0  56459-4 0  9995,2 54087  53.2136  97.5344 0002254  84.8951 275.2298 15.08843156 13815,6917.871,95.437,541.295,538.1759999999999,0.0
54087.0,STARLINK-5184,PAYLOAD,2023-01-14 22:57:45,15.08834881,0.0001296,53.217,95.4566,73.3826,286.7308,7.0477e-05,8.34e-06,0.0,0 STARLINK-5184,1 54087U 22136AN  23014.95678000  .00000834  00000-0  70477-4 0  9997,2 54087  53.2170  95.4566 0001296  73.3826 286.7308 15.08834881 13886,6917.896,95.438,540.658,538.864,0.0
54087.0,STARLINK-5184,PAYLOAD,2023-01-15 08:30:05,15.08830564,0.0001599,53.2161,93.6716,81.7371,278.3802,1.4513e-05,-5.7e-07,0.0,0 STARLINK-5184,1 54087U 22136AN  23015.35422729 -.00000057  00000-0  14513-4 0  9994,2 54087  53.2161  93.6716 0001599  81.7371 278.3802 15.08830564 13472,6917.909000000001,95.438,540.88,538.668,0.0
54087.0,STARLINK-5184,PAYLOAD,2023-01-16 11:31:36,15.08859445,0.0001210999999999,53.2171,88.6161,77.3301,282.7827,0.00024227,3.572e-05,0.0,0 STARLINK-5184,1 54087U 22136AN  23016.48027961  .00003572  00000-0  24227-3 0  9994,2 54087  53.2171  88.6161 0001211  77.3301 282.7827 15.08859445 14113,6917.821,95.436,540.524,538.8480000000001,0.0
54087.0,STARLINK-5184,PAYLOAD,2023-01-16 21:03:57,15.08832801,0.0001398,53.2165,86.8317,83.2511,276.86400000000003,-7.155e-05,-1.426e-05,0.0,0 STARLINK-5184,1 54087U 22136AN  23016.87774441 -.00001426  00000-0 -71550-4 0  9999,2 54087  53.2165  86.8317 0001398  83.2511 276.8640 15.08832801 14174,6917.901999999999,95.438,540.735,538.8,0.0
54087.0,STARLINK-5184,PAYLOAD,2023-01-17 05:00:55,15.08796938,0.0001196,53.2179,85.3466,97.6594,262.4534,-0.00020856,-3.601e-05,0.0,0 STARLINK-5184,1 54087U 22136AN  23017.20897316 -.00003601  00000-0 -20856-3 0  9993,2 54087  53.2179  85.3466 0001196  97.6594 262.4534 15.08796938 14223,6918.012,95.44,540.7040000000001,539.05,0.0
54087.0,STARLINK-5184,PAYLOAD,2023-01-17 11:22:27,15.08825043,0.0001932,53.2168,84.1578,91.6956,268.4258,-0.00044321,-7.332e-05,0.0,0 STARLINK-5184,1 54087U 22136AN  23017.47392863 -.00007332  00000-0 -44321-3 0  9997,2 54087  53.2168  84.1578 0001932  91.6956 268.4258 15.08825043 14269,6917.926,95.439,541.128,538.455,0.0
54087.0,STARLINK-5184,PAYLOAD,2023-01-18 08:02:27,15.08793326,0.0001737,53.217,80.2913,117.2895,242.8274,0.00050947,7.819e-05,0.0,0 STARLINK-5184,1 54087U 22136AN  23018.33503625  .00007819  00000-0  50947-3 0  9992,2 54087  53.2170  80.2913 0001737 117.2895 242.8274 15.08793326 14398,6918.023,95.441,541.09,538.686,0.0
54087.0,STARLINK-5184,PAYLOAD,2023-01-18 11:13:11,15.08864342,0.0001002,53.2171,79.6948,102.8563,257.2541,2.8425e-05,1.65e-06,0.0,0 STARLINK-5184,1 54087U 22136AN  23018.46749597  .00000165  00000-0  28425-4 0  9990,2 54087  53.2171  79.6948 0001002 102.8563 257.2541 15.08864342 13940,6917.806,95.436,540.364,538.9780000000001,0.0
54087.0,STARLINK-5184,PAYLOAD,2023-01-19 03:07:03,15.08826839,0.0001041,53.2171,76.7235,122.0217,238.0876,0.0003658,5.537e-05,0.0,0 STARLINK-5184,1 54087U 22136AN  23019.12990552  .00005537  00000-0  36580-3 0  9991,2 54087  53.2171  76.7235 0001041 122.0217 238.0876 15.08826839 14511,6917.920999999999,95.438,540.506,539.065,0.0
54087.0,STARLINK-5184,PAYLOAD,2023-01-19 09:28:36,15.08835818,0.0001049,53.2176,75.5321,119.4883,240.6214,0.00027961,4.164e-05,0.0,0 STARLINK-5184,1 54087U 22136AN  23019.39486540  .00004164  00000-0  27961-3 0  9995,2 54087  53.2176  75.5321 0001049 119.4883 240.6214 15.08835818 14080,6917.893,95.438,540.484,539.0319999999999,0.0
54087.0,STARLINK-5184,PAYLOAD,2023-01-20 10:54:46,15.08850592,0.0001091,53.2177,70.7741,92.8347,267.277,-9.7627e-05,-1.842e-05,0.0,0 STARLINK-5184,1 54087U 22136AN  23020.45470998 -.00001842  00000-0 -97627-4 0  9993,2 54087  53.2177  70.7741 0001091  92.8347 267.2770 15.08850592 14718,6917.848000000001,95.437,540.4680000000001,538.9580000000001,0.0
54087.0,STARLINK-5184,PAYLOAD,2023-01-21 02:48:38,15.08839263,0.0001289,53.2179,67.7994,102.2012,257.9124,-0.00011645,-2.141e-05,0.0,0 STARLINK-5184,1 54087U 22136AN  23021.11711649 -.00002141  00000-0 -11645-3 0  9996,2 54087  53.2179  67.7994 0001289 102.2012 257.9124 15.08839263 14812,6917.883000000001,95.438,540.639,538.856,0.0
54087.0,STARLINK-5184,PAYLOAD,2023-01-21 09:10:10,15.08847916,0.0001066999999999,53.2188,66.6124,70.7208,289.39,-1.9593e-05,-6e-06,0.0,0 STARLINK-5184,1 54087U 22136AN  23021.38206716 -.00000600  00000-0 -19593-4 0  9998,2 54087  53.2188  66.6124 0001067  70.7208 289.3900 15.08847916 14854,6917.856,95.437,540.4590000000001,538.9830000000001,0.0
54087.0,STARLINK-5184,PAYLOAD,2023-01-22 12:11:43,15.08846445,0.0001335,53.2184,61.5518,91.0742,269.0403,6.8416e-05,8.01e-06,0.0,0 STARLINK-5184,1 54087U 22136AN  23022.50814175  .00000801  00000-0  68416-4 0  9996,2 54087  53.2184  61.5518 0001335  91.0742 269.0403 15.08846445 15027,6917.861,95.437,540.649,538.802,0.0
54087.0,STARLINK-5184,PAYLOAD,2023-01-23 02:30:13,15.08828545,0.0001274999999999,53.217,58.8814,76.1516,283.9617,-4.2918999999999993e-05,-9.71e-06,0.0,0 STARLINK-5184,1 54087U 22136AN  23023.10431922 -.00000971  00000-0 -42919-4 0  9998,2 54087  53.2170  58.8814 0001275  76.1516 283.9617 15.08828545 15119,6917.915,95.438,540.6619999999999,538.898,0.0
54087.0,STARLINK-5184,PAYLOAD,2023-01-23 08:51:45,15.08838463,0.0001288,53.218,57.6881,99.5318,260.582,-9.8375e-05,-1.853e-05,0.0,0 STARLINK-5184,1 54087U 22136AN  23023.36927595 -.00001853  00000-0 -98375-4 0  9999,2 54087  53.2180  57.6881 0001288  99.5318 260.5820 15.08838463 15155,6917.885,95.438,540.641,538.859,0.0
54087.0,STARLINK-5184,PAYLOAD,2023-01-24 11:53:17,15.08847492,0.0001245,53.2178,52.6325,103.5418,256.5713,3.5218e-05,2.73e-06,0.0,0 STARLINK-5184,1 54087U 22136AN  23024.49534652  .00000273  00000-0  35218-4 0  9992,2 54087  53.2178  52.6325 0001245 103.5418 256.5713 15.08847492 15327,6917.857,95.437,540.5840000000001,538.861,0.0
54087.0,STARLINK-5184,PAYLOAD,2023-01-24 18:14:51,15.08839624,0.0001351,53.2186,51.4407,87.2619,272.8528,-2.9413e-05,-7.56e-06,0.0,0 STARLINK-5184,1 54087U 22136AN  23024.76031353 -.00000756  00000-0 -29413-4 0  9990,2 54087  53.2186  51.4407 0001351  87.2619 272.8528 15.08839624 15360,6917.882,95.438,540.681,538.812,0.0
54087.0,STARLINK-5184,PAYLOAD,2023-01-25 05:22:33,15.08828494,0.0001205,53.2184,49.3642,92.3481,267.7649,9.2964e-06,-1.4e-06,0.0,0 STARLINK-5184,1 54087U 22136AN  23025.22400358 -.00000140  00000-0  92964-5 0  9995,2 54087  53.2184  49.3642 0001205  92.3481 267.7649 15.08828494 15435,6917.916,95.438,540.614,538.947,0.0
54087.0,STARLINK-5184,PAYLOAD,2023-01-25 08:33:19,15.08833934,0.0001115999999999,53.2175,48.7699,81.979,278.1329,3.4101e-05,2.55e-06,0.0,0 STARLINK-5184,1 54087U 22136AN  23025.35648017  .00000255  00000-0  34101-4 0  9999,2 54087  53.2175  48.7699 0001116  81.9790 278.1329 15.08833934 14983,6917.899,95.438,540.536,538.992,0.0
54087.0,STARLINK-5184,PAYLOAD,2023-01-26 06:48:43,15.08844283,0.0001122,53.2174,44.6067,94.2421,265.87,-3.5704e-05,-8.56e-06,0.0,0 STARLINK-5184,1 54087U 22136AN  23026.28383886 -.00000856  00000-0 -35704-4 0  9991,2 54087  53.2174  44.6067 0001122  94.2421 265.8700 15.08844283 15594,6917.866999999999,95.437,540.508,538.956,0.0
54087.0,STARLINK-5184,PAYLOAD,2023-01-26 22:42:35,15.08831872,7.509999999999998e-05,53.2177,41.6338,108.0349,252.0725,9.1886e-05,1.175e-05,0.0,0 STARLINK-5184,1 54087U 22136AN  23026.94624063  .00001175  00000-0  91886-4 0  9995,2 54087  53.2177  41.6338 0000751 108.0349 252.0725 15.08831872 15691,6917.905,95.438,540.29,539.251,0.0
